IRIDIUM 138             
1 43071U 17083B   26197.54947900  .00000138  00000+0  42349-4 0  9994
2 43071  86.4000 309.4419 0002061  92.6647 267.4784 14.34218955448341
IRIDIUM 116             
1 43072U 17083C   26197.37823008  .00000121  00000+0  36226-4 0  9997
2 43072  86.3985 309.7989 0002490  98.0794 262.0685 14.34217961448355
IRIDIUM 130             
1 43073U 17083D   26197.55582615  .00000137  00000+0  42023-4 0  9993
2 43073  86.3994 310.0029 0002294 100.7313 259.4141 14.34218258448320
IRIDIUM 151             
1 43074U 17083E   26197.39091677  .00000112  00000+0  32991-4 0  9995
2 43074  86.3987 309.8521 0002273  95.0949 265.0506 14.34218201448320
IRIDIUM 134             
1 43075U 17083F   26197.35920372  .00000057  00000+0  13464-4 0  9997
2 43075  86.3988 309.8736 0002227  95.2844 264.8606 14.34217929448284
IRIDIUM 137             
1 43076U 17083G   26197.72073233  .00000070  00000+0  17776-4 0  9999
2 43076  86.3992 309.8163 0002712  93.0422 267.1084 14.34218110448404
IRIDIUM 141             
1 43077U 17083H   26197.57485125  .00000084  00000+0  22774-4 0  9999
2 43077  86.3985 309.7060 0002184  93.5068 266.6378 14.34217872448387
IRIDIUM 153             
1 43078U 17083J   26197.45726154  .00000061  00000+0  14816-4 0  9990
2 43078  86.3959 278.2342 0002126  94.9699 265.1740 14.34217866449474
IRIDIUM 131             
1 43079U 17083K   26197.35286066  .00000088  00000+0  24205-4 0  9995
2 43079  86.3990 309.9867 0002226  94.3683 265.7768 14.34218322448284
IRIDIUM 144             
1 43249U 18030A   26197.25429868  .00000069  00000+0  17699-4 0  9993
2 43249  86.3956 278.2475 0002392  96.4668 263.6800 14.34218065434304
IRIDIUM 149             
1 43250U 18030B   26197.60948404  .00000086  00000+0  23800-4 0  9996
2 43250  86.3956 278.0656 0002251  93.3087 266.8366 14.34218095434372
IRIDIUM 157             
1 43251U 18030C   26197.62851383  .00000141  00000+0  43287-4 0  9991
2 43251  86.3959 278.1117 0002266  94.1885 265.9570 14.34218381434353
IRIDIUM 140             
1 43252U 18030D   26197.64754215  .00000144  00000+0  44286-4 0  9993
2 43252  86.3957 278.1162 0002245  95.8058 264.3394 14.34217991434419
IRIDIUM 145             
1 43253U 18030E   26197.63485440  .00000105  00000+0  30541-4 0  9990
2 43253  86.3955 278.0936 0002537  99.4157 260.7326 14.34217566434345
IRIDIUM 146             
1 43254U 18030F   26197.61582700  .00000063  00000+0  15277-4 0  9998
2 43254  86.3959 278.1138 0002389  96.0786 264.0682 14.34217578434357
IRIDIUM 148             
1 43255U 18030G   26197.65388490  .00000142  00000+0  43774-4 0  9994
2 43255  86.3959 278.1412 0002340  93.1971 266.9493 14.34218363434392
IRIDIUM 142             
1 43256U 18030H   26197.62216964  .00000072  00000+0  18680-4 0  9998
2 43256  86.3954 278.0424 0002461  96.4639 263.6837 14.34218016434358
IRIDIUM 150             
1 43257U 18030J   26197.66022380 -.00000172  00000+0 -68643-4 0  9997
2 43257  86.3958 278.1436 0002190  96.1057 264.0388 14.34216501434383
IRIDIUM 143             
1 43258U 18030K   26197.64119826  .00000087  00000+0  24062-4 0  9998
2 43258  86.3962 278.2456 0002336  96.8392 263.3069 14.34217766434318
IRIDIUM 161             
1 43478U 18047C   26197.77326010  .00000154  00000+0  39656-4 0  9999
2 43478  86.4460  76.0980 0002238  80.8662 279.2791 14.43276159429409
IRIDIUM 152             
1 43479U 18047D   26197.75345238  .00000059  00000+0  13958-4 0  9992
2 43479  86.3934  75.9676 0002152  84.1865 275.9576 14.34218453426721
IRIDIUM 147             
1 43480U 18047E   26197.75979481  .00000071  00000+0  18278-4 0  9991
2 43480  86.3937  75.9707 0002276  88.5156 271.6301 14.34217420426721
IRIDIUM 110             
1 43481U 18047F   26197.62659829  .00000145  00000+0  44768-4 0  9994
2 43481  86.3938  76.1191 0002084  77.6802 282.4627 14.34218974426699
IRIDIUM 162             
1 43482U 18047G   26197.62830052  .00000178  00000+0  47005-4 0  9997
2 43482  86.4458  76.0492 0002200  87.1355 273.0098 14.43278914429376
IRIDIUM 160             
1 43569U 18061A   26197.64220407  .00000127  00000+0  38231-4 0  9993
2 43569  86.3939  44.4763 0002230  86.8473 273.2978 14.34217435417596
IRIDIUM 166             
1 43570U 18061B   26197.59780667  .00000043  00000+0  83983-5 0  9990
2 43570  86.3938  44.4451 0002284  89.8451 270.3007 14.34217755417618
IRIDIUM 158             
1 43571U 18061C   26197.63586153  .00000070  00000+0  17867-4 0  9997
2 43571  86.3938  44.4388 0002107  88.1381 272.0056 14.34217970417584
IRIDIUM 165             
1 43572U 18061D   26197.66123346  .00000034  00000+0  51223-5 0  9997
2 43572  86.3940  44.4751 0002280  90.6648 269.4810 14.34217225417613
IRIDIUM 155             
1 43573U 18061E   26197.62317672  .00000053  00000+0  11956-4 0  9990
2 43573  86.3936  44.3592 0002135  89.7006 270.4435 14.34217621417577
IRIDIUM 154             
1 43574U 18061F   26197.60414883  .00000047  00000+0  98759-5 0  9991
2 43574  86.3940  44.5020 0002304  89.9627 270.1832 14.34217554417629
IRIDIUM 163             
1 43575U 18061G   26197.58512178  .00000022  00000+0  70058-6 0  9991
2 43575  86.3937  44.4242 0002112  86.0861 274.0576 14.34217236417597
